[
    {
        "Altitude(m)": 556376.4845378858,
        "Argument of Periapsis(deg)": 0.0,
        "Eccentricity": 0.0,
        "Inclination(deg)": 53.0,
        "Latitude(deg)": 37.24568812814964,
        "Longitude(deg)": 10.295079453847329,
        "Mean Anomaly(deg)": -229.09089999999998,
        "RAAN(deg)": 325.0,
        "Satellite Name": "Starlink Shell 1 1438",
        "Satellite Number": 1438,
        "Semi-Major Axis(m)": 6931778.249405717,
        "Time(s)": 0
    },
    {
        "Altitude(m)": 556293.3553557746,
        "Argument of Periapsis(deg)": 0.00034857847951123687,
        "Eccentricity": 0.0,
        "Inclination(deg)": 53.0,
        "Latitude(deg)": 36.831466281627115,
        "Longitude(deg)": 10.843542372168315,
        "Mean Anomaly(deg)": -228.46406879644329,
        "RAAN(deg)": 324.9994812299225,
        "Satellite Name": "Starlink Shell 1 1438",
        "Satellite Number": 1438,
        "Semi-Major Axis(m)": 6931778.249405717,
        "Time(s)": 10
    },
    {
        "Altitude(m)": 556210.4223063507,
        "Argument of Periapsis(deg)": 0.0006971569590224737,
        "Eccentricity": 0.0,
        "Inclination(deg)": 53.0,
        "Latitude(deg)": 36.414321326156106,
        "Longitude(deg)": 11.38566463444153,
        "Mean Anomaly(deg)": -227.83723759288657,
        "RAAN(deg)": 324.9989624598451,
        "Satellite Name": "Starlink Shell 1 1438",
        "Satellite Number": 1438,
        "Semi-Major Axis(m)": 6931778.249405717,
        "Time(s)": 20
    },
    {
        "Altitude(m)": 556127.7409479766,
        "Argument of Periapsis(deg)": 0.0010457354385337105,
        "Eccentricity": 0.0,
        "Inclination(deg)": 53.0,
        "Latitude(deg)": 35.994326868680645,
        "Longitude(deg)": 11.92156601840732,
        "Mean Anomaly(deg)": -227.21040638932988,
        "RAAN(deg)": 324.99844368976756,
        "Satellite Name": "Starlink Shell 1 1438",
        "Satellite Number": 1438,
        "Semi-Major Axis(m)": 6931778.249405717,
        "Time(s)": 30
    },
    {
        "Altitude(m)": 556045.3669199712,
        "Argument of Periapsis(deg)": 0.0013943139180449475,
        "Eccentricity": 0.0,
        "Inclination(deg)": 53.0,
        "Latitude(deg)": 35.5715548763582,
        "Longitude(deg)": 12.45136637715107,
        "Mean Anomaly(deg)": -226.58357518577316,
        "RAAN(deg)": 324.99792491969004,
        "Satellite Name": "Starlink Shell 1 1438",
        "Satellite Number": 1438,
        "Semi-Major Axis(m)": 6931778.249405717,
        "Time(s)": 40
    },
    {
        "Altitude(m)": 555963.3559139777,
        "Argument of Periapsis(deg)": 0.0017428923975561844,
        "Eccentricity": 0.0,
        "Inclination(deg)": 53.0,
        "Latitude(deg)": 35.146075706359376,
        "Longitude(deg)": 12.97518451621173,
        "Mean Anomaly(deg)": -225.9567439822164,
        "RAAN(deg)": 324.99740614961263,
        "Satellite Name": "Starlink Shell 1 1438",
        "Satellite Number": 1438,
        "Semi-Major Axis(m)": 6931778.249405717,
        "Time(s)": 50
    },
    {
        "Altitude(m)": 555881.7636452684,
        "Argument of Periapsis(deg)": 0.002091470877067421,
        "Eccentricity": 0.0,
        "Inclination(deg)": 53.0,
        "Latitude(deg)": 34.71795813649885,
        "Longitude(deg)": 13.493138593854791,
        "Mean Anomaly(deg)": -225.32991277865975,
        "RAAN(deg)": 324.99688737953517,
        "Satellite Name": "Starlink Shell 1 1438",
        "Satellite Number": 1438,
        "Semi-Major Axis(m)": 6931778.249405717,
        "Time(s)": 60
    },
    {
        "Altitude(m)": 555800.6458239902,
        "Argument of Periapsis(deg)": 0.0024400493565786582,
        "Eccentricity": 0.0,
        "Inclination(deg)": 53.0,
        "Latitude(deg)": 34.287269396549604,
        "Longitude(deg)": 14.005346531064998,
        "Mean Anomaly(deg)": -224.70308157510297,
        "RAAN(deg)": 324.99636860945765,
        "Satellite Name": "Starlink Shell 1 1438",
        "Satellite Number": 1438,
        "Semi-Major Axis(m)": 6931778.249405717,
        "Time(s)": 70
    },
    {
        "Altitude(m)": 555720.0581263606,
        "Argument of Periapsis(deg)": 0.002788627836089895,
        "Eccentricity": 0.0,
        "Inclination(deg)": 53.0,
        "Latitude(deg)": 33.85407520010407,
        "Longitude(deg)": 14.511924917828422,
        "Mean Anomaly(deg)": -224.07625037154622,
        "RAAN(deg)": 324.99584983938024,
        "Satellite Name": "Starlink Shell 1 1438",
        "Satellite Number": 1438,
        "Semi-Major Axis(m)": 6931778.249405717,
        "Time(s)": 80
    },
    {
        "Altitude(m)": 555640.0561658489,
        "Argument of Periapsis(deg)": 0.0031372063156011316,
        "Eccentricity": 0.0,
        "Inclination(deg)": 53.0,
        "Latitude(deg)": 33.418439776863664,
        "Longitude(deg)": 15.012989440915018,
        "Mean Anomaly(deg)": -223.44941916798956,
        "RAAN(deg)": 324.9953310693027,
        "Satellite Name": "Starlink Shell 1 1438",
        "Satellite Number": 1438,
        "Semi-Major Axis(m)": 6931778.249405717,
        "Time(s)": 90
    },
    {
        "Altitude(m)": 555560.6954643175,
        "Argument of Periapsis(deg)": 0.0034857847951123688,
        "Eccentricity": 0.0,
        "Inclination(deg)": 53.0,
        "Latitude(deg)": 32.980425905243216,
        "Longitude(deg)": 15.508655319768046,
        "Mean Anomaly(deg)": -222.8225879644329,
        "RAAN(deg)": 324.99481229922526,
        "Satellite Name": "Starlink Shell 1 1438",
        "Satellite Number": 1438,
        "Semi-Major Axis(m)": 6931778.249405717,
        "Time(s)": 100
    },
    {
        "Altitude(m)": 555482.0314231949,
        "Argument of Periapsis(deg)": 0.003834363274623606,
        "Eccentricity": 0.0,
        "Inclination(deg)": 53.0,
        "Latitude(deg)": 32.54009494518378,
        "Longitude(deg)": 15.999036237125766,
        "Mean Anomaly(deg)": -222.19575676087612,
        "RAAN(deg)": 324.9942935291478,
        "Satellite Name": "Starlink Shell 1 1438",
        "Satellite Number": 1438,
        "Semi-Major Axis(m)": 6931778.249405717,
        "Time(s)": 110
    },
    {
        "Altitude(m)": 555404.119294627,
        "Argument of Periapsis(deg)": 0.004182941754134842,
        "Eccentricity": 0.0,
        "Inclination(deg)": 53.0,
        "Latitude(deg)": 32.097506871086196,
        "Longitude(deg)": 16.48424478964368,
        "Mean Anomaly(deg)": -221.5689255573194,
        "RAAN(deg)": 324.9937747590703,
        "Satellite Name": "Starlink Shell 1 1438",
        "Satellite Number": 1438,
        "Semi-Major Axis(m)": 6931778.249405717,
        "Time(s)": 120
    },
    {
        "Altitude(m)": 555327.0141526861,
        "Argument of Periapsis(deg)": 0.004531520233646079,
        "Eccentricity": 0.0,
        "Inclination(deg)": 53.0,
        "Latitude(deg)": 31.65272030477824,
        "Longitude(deg)": 16.964392945183377,
        "Mean Anomaly(deg)": -220.9420943537627,
        "RAAN(deg)": 324.9932559889928,
        "Satellite Name": "Starlink Shell 1 1438",
        "Satellite Number": 1438,
        "Semi-Major Axis(m)": 6931778.249405717,
        "Time(s)": 130
    },
    {
        "Altitude(m)": 555250.7708645861,
        "Argument of Periapsis(deg)": 0.0048800987131573164,
        "Eccentricity": 0.0,
        "Inclination(deg)": 53.0,
        "Latitude(deg)": 31.20579254843574,
        "Longitude(deg)": 17.439590993454626,
        "Mean Anomaly(deg)": -220.315263150206,
        "RAAN(deg)": 324.9927372189154,
        "Satellite Name": "Starlink Shell 1 1438",
        "Satellite Number": 1438,
        "Semi-Major Axis(m)": 6931778.249405717,
        "Time(s)": 140
    },
    {
        "Altitude(m)": 555175.4440620159,
        "Argument of Periapsis(deg)": 0.005228677192668553,
        "Eccentricity": 0.0,
        "Inclination(deg)": 53.0,
        "Latitude(deg)": 30.756779617394578,
        "Longitude(deg)": 17.909948015338077,
        "Mean Anomaly(deg)": -219.68843194664922,
        "RAAN(deg)": 324.9922184488379,
        "Satellite Name": "Starlink Shell 1 1438",
        "Satellite Number": 1438,
        "Semi-Major Axis(m)": 6931778.249405717,
        "Time(s)": 150
    },
    {
        "Altitude(m)": 555101.0881124649,
        "Argument of Periapsis(deg)": 0.00557725567217979,
        "Eccentricity": 0.0,
        "Inclination(deg)": 53.0,
        "Latitude(deg)": 30.305736272788966,
        "Longitude(deg)": 18.375572357617486,
        "Mean Anomaly(deg)": -219.0616007430925,
        "RAAN(deg)": 324.99169967876037,
        "Satellite Name": "Starlink Shell 1 1438",
        "Satellite Number": 1438,
        "Semi-Major Axis(m)": 6931778.249405717,
        "Time(s)": 160
    },
    {
        "Altitude(m)": 555027.7570906853,
        "Argument of Periapsis(deg)": 0.0059258341516910265,
        "Eccentricity": 0.0,
        "Inclination(deg)": 53.0,
        "Latitude(deg)": 29.852716053957078,
        "Longitude(deg)": 18.8365705998682,
        "Mean Anomaly(deg)": -218.4347695395358,
        "RAAN(deg)": 324.99118090868296,
        "Satellite Name": "Starlink Shell 1 1438",
        "Satellite Number": 1438,
        "Semi-Major Axis(m)": 6931778.249405717,
        "Time(s)": 170
    },
    {
        "Altitude(m)": 554955.5047502556,
        "Argument of Periapsis(deg)": 0.006274412631202263,
        "Eccentricity": 0.0,
        "Inclination(deg)": 53.0,
        "Latitude(deg)": 29.397771310572224,
        "Longitude(deg)": 19.29304803888846,
        "Mean Anomaly(deg)": -217.80793833597912,
        "RAAN(deg)": 324.9906621386055,
        "Satellite Name": "Starlink Shell 1 1438",
        "Satellite Number": 1438,
        "Semi-Major Axis(m)": 6931778.249405717,
        "Time(s)": 180
    }
]